{"fetched_at":"2026-04-09T09:08:13Z","count":5311,"tles":[{"name":"STARLINK-37178","line1":"1 68526U 26068U   26097.24232564 -.00535920  10217-3 -14753-2 0  9993","line2":"2 68526  53.1609   6.2297 0000477 322.3858  37.7136 15.93153970  1188","category":"Starlink"}]}