{
  "norad_id": 68526,
  "name": "STARLINK-37178",
  "history": [
    {
      "epoch": "2026-04-07T05:48:56.935296Z",
      "apogee_km": 293.7813566824516,
      "perigee_km": 293.14488603087375,
      "latitude_deg": -4.5645882496401565e-05,
      "longitude_deg": 83.4704018066746,
      "height_km": 294.1355925324048,
      "semi_major_axis_km": 6671.600121356662,
      "eccentricity": 4.77e-05,
      "inclination_deg": 53.1609,
      "raan_deg": 6.2297,
      "arg_perigee_deg": 322.3858,
      "mean_anomaly_deg": 37.7136,
      "mean_motion_rev_day": 15.9315397
    }
  ]
}